[{"OBJECT_NAME":"LEMUR-2-LANGER2SPACE","OBJECT_ID":"2025-061H","EPOCH":"2026-04-25T22:30:59.517504","MEAN_MOTION":15.13883213,"ECCENTRICITY":0.00187288,"INCLINATION":97.5586,"RA_OF_ASC_NODE":92.0083,"ARG_OF_PERICENTER":79.4854,"MEAN_ANOMALY":280.8487,"EPHEMERIS_TYPE":0,"CLASSIFICATION_TYPE":"U","NORAD_CAT_ID":63358,"ELEMENT_SET_NO":999,"REV_AT_EPOCH":5971,"BSTAR":0.00028746327,"MEAN_MOTION_DOT":5.157e-5,"MEAN_MOTION_DDOT":0},{"OBJECT_NAME":"LEMUR-2-BALTO","OBJECT_ID":"2025-052BH","EPOCH":"2026-04-25T16:19:37.837920","MEAN_MOTION":14.99536517,"ECCENTRICITY":0.00011741,"INCLINATION":97.6942,"RA_OF_ASC_NODE":9.933,"ARG_OF_PERICENTER":177.7708,"MEAN_ANOMALY":182.3521,"EPHEMERIS_TYPE":0,"CLASSIFICATION_TYPE":"U","NORAD_CAT_ID":63395,"ELEMENT_SET_NO":999,"REV_AT_EPOCH":6089,"BSTAR":0.00038441321,"MEAN_MOTION_DOT":4.665e-5,"MEAN_MOTION_DDOT":0},{"OBJECT_NAME":"LEMUR-2-KRISH","OBJECT_ID":"2025-135AK","EPOCH":"2026-04-25T20:01:32.936736","MEAN_MOTION":14.95704593,"ECCENTRICITY":0.000109,"INCLINATION":97.7669,"RA_OF_ASC_NODE":231.1144,"ARG_OF_PERICENTER":103.5387,"MEAN_ANOMALY":256.5955,"EPHEMERIS_TYPE":0,"CLASSIFICATION_TYPE":"U","NORAD_CAT_ID":64561,"ELEMENT_SET_NO":999,"REV_AT_EPOCH":4609,"BSTAR":0.00051782734,"MEAN_MOTION_DOT":5.709e-5,"MEAN_MOTION_DDOT":0},{"OBJECT_NAME":"LEMUR-2-HUBBLE-4","OBJECT_ID":"2025-135AP","EPOCH":"2026-04-25T20:52:34.988160","MEAN_MOTION":14.93047416,"ECCENTRICITY":0.00040001,"INCLINATION":97.7635,"RA_OF_ASC_NODE":230.4245,"ARG_OF_PERICENTER":102.3909,"MEAN_ANOMALY":257.7758,"EPHEMERIS_TYPE":0,"CLASSIFICATION_TYPE":"U","NORAD_CAT_ID":64565,"ELEMENT_SET_NO":999,"REV_AT_EPOCH":4606,"BSTAR":0.00018547103,"MEAN_MOTION_DOT":1.874e-5,"MEAN_MOTION_DDOT":0},{"OBJECT_NAME":"LEMUR-2-SEJONG-2","OBJECT_ID":"2025-135BL","EPOCH":"2026-04-25T22:47:00.131712","MEAN_MOTION":14.96245597,"ECCENTRICITY":0.00057827,"INCLINATION":97.7624,"RA_OF_ASC_NODE":231.3673,"ARG_OF_PERICENTER":130.1818,"MEAN_ANOMALY":229.9911,"EPHEMERIS_TYPE":0,"CLASSIFICATION_TYPE":"U","NORAD_CAT_ID":64586,"ELEMENT_SET_NO":999,"REV_AT_EPOCH":4613,"BSTAR":0.00046650777,"MEAN_MOTION_DOT":5.21e-5,"MEAN_MOTION_DDOT":0},{"OBJECT_NAME":"LEMUR-2-HUBBLE-5","OBJECT_ID":"2025-135BT","EPOCH":"2026-04-25T18:49:12.742464","MEAN_MOTION":14.93968245,"ECCENTRICITY":0.00065557,"INCLINATION":97.7652,"RA_OF_ASC_NODE":230.8992,"ARG_OF_PERICENTER":142.9361,"MEAN_ANOMALY":217.2312,"EPHEMERIS_TYPE":0,"CLASSIFICATION_TYPE":"U","NORAD_CAT_ID":64840,"ELEMENT_SET_NO":999,"REV_AT_EPOCH":4608,"BSTAR":0.00015144957,"MEAN_MOTION_DOT":1.556e-5,"MEAN_MOTION_DDOT":0},{"OBJECT_NAME":"LEMUR-2-KARENDARRELL","OBJECT_ID":"2025-135BU","EPOCH":"2026-04-25T21:01:58.557216","MEAN_MOTION":14.99370917,"ECCENTRICITY":0.00093396,"INCLINATION":97.7666,"RA_OF_ASC_NODE":232.2028,"ARG_OF_PERICENTER":50.8564,"MEAN_ANOMALY":309.3488,"EPHEMERIS_TYPE":0,"CLASSIFICATION_TYPE":"U","NORAD_CAT_ID":64841,"ELEMENT_SET_NO":999,"REV_AT_EPOCH":4617,"BSTAR":0.00085991394,"MEAN_MOTION_DOT":0.00010479,"MEAN_MOTION_DDOT":0},{"OBJECT_NAME":"LEMUR-2-LUCILLE-ROSE","OBJECT_ID":"2025-135BV","EPOCH":"2026-04-25T20:25:54.888672","MEAN_MOTION":14.99365883,"ECCENTRICITY":0.00109182,"INCLINATION":97.7644,"RA_OF_ASC_NODE":232.1668,"ARG_OF_PERICENTER":99.2233,"MEAN_ANOMALY":261.0225,"EPHEMERIS_TYPE":0,"CLASSIFICATION_TYPE":"U","NORAD_CAT_ID":65403,"ELEMENT_SET_NO":999,"REV_AT_EPOCH":4079,"BSTAR":0.00080877485,"MEAN_MOTION_DOT":9.853e-5,"MEAN_MOTION_DDOT":0},{"OBJECT_NAME":"LEMUR-2-AFFIE-WAUWIE","OBJECT_ID":"2025-248C","EPOCH":"2026-04-25T19:50:01.681440","MEAN_MOTION":15.25353439,"ECCENTRICITY":0.00087651,"INCLINATION":45.3993,"RA_OF_ASC_NODE":38.2974,"ARG_OF_PERICENTER":148.5563,"MEAN_ANOMALY":211.5851,"EPHEMERIS_TYPE":0,"CLASSIFICATION_TYPE":"U","NORAD_CAT_ID":66295,"ELEMENT_SET_NO":999,"REV_AT_EPOCH":2659,"BSTAR":0.00081812264,"MEAN_MOTION_DOT":0.00020793,"MEAN_MOTION_DDOT":0},{"OBJECT_NAME":"LEMUR-2-DEANANDMAEVE","OBJECT_ID":"2025-276N","EPOCH":"2026-04-25T18:14:21.077952","MEAN_MOTION":15.19047941,"ECCENTRICITY":0.00063005,"INCLINATION":97.4227,"RA_OF_ASC_NODE":190.1285,"ARG_OF_PERICENTER":168.414,"MEAN_ANOMALY":191.7241,"EPHEMERIS_TYPE":0,"CLASSIFICATION_TYPE":"U","NORAD_CAT_ID":66678,"ELEMENT_SET_NO":999,"REV_AT_EPOCH":2245,"BSTAR":0.00034933519,"MEAN_MOTION_DOT":7.258e-5,"MEAN_MOTION_DDOT":0},{"OBJECT_NAME":"LEMUR-2-STAS-GORBUK","OBJECT_ID":"2025-276W","EPOCH":"2026-04-25T18:20:10.700736","MEAN_MOTION":15.18793512,"ECCENTRICITY":0.00058843,"INCLINATION":97.4264,"RA_OF_ASC_NODE":190.1877,"ARG_OF_PERICENTER":162.7087,"MEAN_ANOMALY":197.4348,"EPHEMERIS_TYPE":0,"CLASSIFICATION_TYPE":"U","NORAD_CAT_ID":66686,"ELEMENT_SET_NO":999,"REV_AT_EPOCH":2245,"BSTAR":0.00028317443,"MEAN_MOTION_DOT":5.826e-5,"MEAN_MOTION_DDOT":0},{"OBJECT_NAME":"LEMUR-2-TEODOR","OBJECT_ID":"2025-276DG","EPOCH":"2026-04-25T22:29:03.255936","MEAN_MOTION":15.20465886,"ECCENTRICITY":0.00013263,"INCLINATION":97.4167,"RA_OF_ASC_NODE":190.5288,"ARG_OF_PERICENTER":74.5426,"MEAN_ANOMALY":285.5955,"EPHEMERIS_TYPE":0,"CLASSIFICATION_TYPE":"U","NORAD_CAT_ID":66768,"ELEMENT_SET_NO":999,"REV_AT_EPOCH":2250,"BSTAR":0.00032109207,"MEAN_MOTION_DOT":6.943e-5,"MEAN_MOTION_DDOT":0},{"OBJECT_NAME":"LEMUR-2-LAILA","OBJECT_ID":"2025-276DQ","EPOCH":"2026-04-25T17:17:57.313536","MEAN_MOTION":15.20674378,"ECCENTRICITY":0.00019164,"INCLINATION":97.4189,"RA_OF_ASC_NODE":190.4034,"ARG_OF_PERICENTER":60.2029,"MEAN_ANOMALY":299.9397,"EPHEMERIS_TYPE":0,"CLASSIFICATION_TYPE":"U","NORAD_CAT_ID":66776,"ELEMENT_SET_NO":999,"REV_AT_EPOCH":2247,"BSTAR":0.00025957938,"MEAN_MOTION_DOT":5.634e-5,"MEAN_MOTION_DDOT":0},{"OBJECT_NAME":"LEMUR-2-CELIJO-SB-PK","OBJECT_ID":"2025-276DW","EPOCH":"2026-04-25T17:22:20.659008","MEAN_MOTION":14.99292759,"ECCENTRICITY":0.00087505,"INCLINATION":97.5247,"RA_OF_ASC_NODE":188.2433,"ARG_OF_PERICENTER":310.1692,"MEAN_ANOMALY":49.8765,"EPHEMERIS_TYPE":0,"CLASSIFICATION_TYPE":"U","NORAD_CAT_ID":66781,"ELEMENT_SET_NO":999,"REV_AT_EPOCH":1476,"BSTAR":0.00046793517,"MEAN_MOTION_DOT":5.662e-5,"MEAN_MOTION_DDOT":0},{"OBJECT_NAME":"LEMUR-2-FINNIAN","OBJECT_ID":"2025-276DX","EPOCH":"2026-04-25T17:10:32.274048","MEAN_MOTION":14.99748444,"ECCENTRICITY":0.00052102,"INCLINATION":97.5269,"RA_OF_ASC_NODE":188.421,"ARG_OF_PERICENTER":290.3769,"MEAN_ANOMALY":69.6895,"EPHEMERIS_TYPE":0,"CLASSIFICATION_TYPE":"U","NORAD_CAT_ID":66782,"ELEMENT_SET_NO":999,"REV_AT_EPOCH":1213,"BSTAR":0.00043450151,"MEAN_MOTION_DOT":5.313e-5,"MEAN_MOTION_DDOT":0},{"OBJECT_NAME":"LEMUR-2-STARLIGHT","OBJECT_ID":"2025-276DY","EPOCH":"2026-04-25T18:15:29.562912","MEAN_MOTION":14.98533048,"ECCENTRICITY":0.00128314,"INCLINATION":97.5289,"RA_OF_ASC_NODE":188.2048,"ARG_OF_PERICENTER":313.9946,"MEAN_ANOMALY":46.0218,"EPHEMERIS_TYPE":0,"CLASSIFICATION_TYPE":"U","NORAD_CAT_ID":66783,"ELEMENT_SET_NO":999,"REV_AT_EPOCH":2234,"BSTAR":0.00049005181,"MEAN_MOTION_DOT":5.821e-5,"MEAN_MOTION_DDOT":0}]
