LEMUR-2-LANGER2SPACE    
1 63358U 25061H   26115.93818886  .00005157  00000+0  28746-3 0  9992
2 63358  97.5586  92.0083 0018728  79.4854 280.8487 15.13883213 59716
LEMUR-2-BALTO           
1 63395U 25052BH  26115.68029905  .00004665  00000+0  38441-3 0  9997
2 63395  97.6942   9.9330 0001174 177.7708 182.3521 14.99536517 60894
LEMUR-2-KRISH           
1 64561U 25135AK  26115.83440899  .00005709  00000+0  51783-3 0  9995
2 64561  97.7669 231.1144 0001090 103.5387 256.5955 14.95704593 46094
LEMUR-2-HUBBLE-4        
1 64565U 25135AP  26115.86984940  .00001874  00000+0  18547-3 0  9992
2 64565  97.7635 230.4245 0004000 102.3909 257.7758 14.93047416 46069
LEMUR-2-SEJONG-2        
1 64586U 25135BL  26115.94930708  .00005210  00000+0  46651-3 0  9992
2 64586  97.7624 231.3673 0005782 130.1818 229.9911 14.96245597 46134
LEMUR-2-HUBBLE-5        
1 64840U 25135BT  26115.78417526  .00001556  00000+0  15145-3 0  9998
2 64840  97.7652 230.8992 0006555 142.9361 217.2312 14.93968245 46087
LEMUR-2-KARENDARRELL    
1 64841U 25135BU  26115.87637219  .00010479  00000+0  85991-3 0  9992
2 64841  97.7666 232.2028 0009339  50.8564 309.3488 14.99370917 46170
LEMUR-2-LUCILLE-ROSE    
1 65403U 25135BV  26115.85132973  .00009853  00000+0  80877-3 0  9994
2 65403  97.7644 232.1668 0010918  99.2233 261.0225 14.99365883 40796
LEMUR-2-AFFIE-WAUWIE    
1 66295U 25248C   26115.82640835  .00020793  00000+0  81812-3 0  9993
2 66295  45.3993  38.2974 0008765 148.5563 211.5851 15.25353439 26599
LEMUR-2-DEANANDMAEVE    
1 66678U 25276N   26115.75996618  .00007258  00000+0  34934-3 0  9998
2 66678  97.4227 190.1285 0006300 168.4140 191.7241 15.19047941 22454
LEMUR-2-STAS-GORBUK     
1 66686U 25276W   26115.76401274  .00005826  00000+0  28317-3 0  9994
2 66686  97.4264 190.1877 0005884 162.7087 197.4348 15.18793512 22456
LEMUR-2-TEODOR          
1 66768U 25276DG  26115.93684324  .00006943  00000+0  32109-3 0  9998
2 66768  97.4167 190.5288 0001326  74.5426 285.5955 15.20465886 22505
LEMUR-2-LAILA           
1 66776U 25276DQ  26115.72080224  .00005634  00000+0  25958-3 0  9993
2 66776  97.4189 190.4034 0001916  60.2029 299.9397 15.20674378 22475
LEMUR-2-CELIJO-SB-PK    
1 66781U 25276DW  26115.72385022  .00005662  00000+0  46794-3 0  9995
2 66781  97.5247 188.2433 0008750 310.1692  49.8765 14.99292759 14769
LEMUR-2-FINNIAN         
1 66782U 25276DX  26115.71565132  .00005313  00000+0  43450-3 0  9996
2 66782  97.5269 188.4210 0005210 290.3769  69.6895 14.99748444 12131
LEMUR-2-STARLIGHT       
1 66783U 25276DY  26115.76075883  .00005821  00000+0  49005-3 0  9997
2 66783  97.5289 188.2048 0012831 313.9946  46.0218 14.98533048 22340
